{
"type": "FeatureCollection",
"name": "settlements",
"crs": { "type": "name", "properties": { "name": "urn:ogc:def:crs:OGC:1.3:CRS84" } },
"features": [
{ "type": "Feature", "properties": { "village_id": "VIL_TILWARA", "name": "Tilwara", "type": "approximate_settlement_zone" }, "geometry": { "type": "Polygon", "coordinates": [ [ [ 78.957697048326807, 30.309581254096322 ], [ 78.957681190611126, 30.309138882907696 ], [ 78.95761543556614, 30.308699990442832 ], [ 78.957500417108022, 30.308268803432373 ], [ 78.957337243546931, 30.307849474344291 ], [ 78.957127486889775, 30.30744604139716 ], [ 78.956873167679376, 30.307062389675639 ], [ 78.95657673551753, 30.306702213722502 ], [ 78.956241045459763, 30.306368981967097 ], [ 78.955869330509998, 30.306065903332595 ], [ 78.95546517048011, 30.305795896343017 ], [ 78.955032457514619, 30.305561561027439 ], [ 78.954575358612573, 30.305365153891199 ], [ 78.954098275507079, 30.305208566194995 ], [ 78.953605802288891, 30.305093305750503 ], [ 78.95310268118115, 30.305020482407535 ], [ 78.952593756890906, 30.304990797372135 ], [ 78.952083929975885, 30.305004536458306 ], [ 78.951578109674855, 30.305061567338111 ], [ 78.951081166654831, 30.305161340816596 ], [ 78.950597886129188, 30.305302896119109 ], [ 78.950132921797234, 30.305484870140326 ], [ 78.949690751048024, 30.305705510565989 ], [ 78.949275631858598, 30.305962692741112 ], [ 78.948891561801631, 30.306253940122645 ], [ 78.948542239556332, 30.306576448119877 ], [ 78.948231029292884, 30.306927111093387 ], [ 78.94796092827346, 30.307302552252978 ], [ 78.947734537981688, 30.307699156166954 ], [ 78.947554039058844, 30.308113103570346 ], [ 78.947421170288507, 30.308540408136938 ], [ 78.947337211832718, 30.308976954861592 ], [ 78.94730297288163, 30.309418539683431 ], [ 78.947318783836607, 30.309860909968442 ], [ 78.947384493102831, 30.310299805462066 ], [ 78.947499468523432, 30.310730999317261 ], [ 78.947662603442083, 30.311150338803031 ], [ 78.947872327336952, 30.3115537853012 ], [ 78.948126620924228, 30.311937453206362 ], [ 78.948423035586785, 30.312297647353823 ], [ 78.948758716941612, 30.31263089861503 ], [ 78.949130432319208, 30.312933997317216 ], [ 78.949534601891273, 30.313204024165156 ], [ 78.94996733314656, 30.313438378366659 ], [ 78.950424458383196, 30.313634802690583 ], [ 78.950901574856005, 30.313791405215721 ], [ 78.951394087192014, 30.313906677560546 ], [ 78.951897251664747, 30.313979509417905 ], [ 78.952406221900659, 30.314009199254578 ], [ 78.952916095576384, 30.313995461072004 ], [ 78.953421961656161, 30.313938427163439 ], [ 78.953918947713731, 30.313838646840207 ], [ 78.9544022668818, 30.313697081140038 ], [ 78.954867263976027, 30.313515093567773 ], [ 78.955309460348374, 30.313294436958458 ], [ 78.95572459703709, 30.313037236589022 ], [ 78.956108675796983, 30.312745969701695 ], [ 78.956457997614464, 30.312423441636771 ], [ 78.956769198335735, 30.312072758804888 ], [ 78.957039281065363, 30.311697298759395 ], [ 78.957265645022545, 30.31130067765773 ], [ 78.957446110578047, 30.310886715425404 ], [ 78.957578940230576, 30.310459398958475 ], [ 78.957662855321388, 30.310022843719405 ], [ 78.957697048326807, 30.309581254096322 ] ] ] } },
{ "type": "Feature", "properties": { "village_id": "VIL_SUMERPUR", "name": "Sumerpur", "type": "approximate_settlement_zone" }, "geometry": { "type": "Polygon", "coordinates": [ [ [ 78.973298714544171, 30.340180707732582 ], [ 78.973282789943141, 30.339738336952337 ], [ 78.973216952613427, 30.339299450154606 ], [ 78.97310183726448, 30.33886827401507 ], [ 78.972938553140381, 30.338448960896589 ], [ 78.972728673313341, 30.338045548863455 ], [ 78.972474219512776, 30.337661922798446 ], [ 78.972177642636751, 30.337301776996778 ], [ 78.971841799134452, 30.336968579596995 ], [ 78.971469923487234, 30.336665539190978 ], [ 78.971065597054093, 30.336395573934293 ], [ 78.970632713581409, 30.336161283453812 ], [ 78.970175441709472, 30.33596492382291 ], [ 78.96969818483619, 30.335808385844707 ], [ 78.969205538724722, 30.335693176852061 ], [ 78.968702247262172, 30.33562040619935 ], [ 78.968193156795053, 30.335590774585388 ], [ 78.967683169480395, 30.335604567309947 ], [ 78.967177196100678, 30.335661651528856 ], [ 78.966680108796254, 30.33576147753389 ], [ 78.966196694169284, 30.335903084044958 ], [ 78.965731607210017, 30.336085107464051 ], [ 78.965289326488062, 30.33630579500166 ], [ 78.964874111039421, 30.33656302154953 ], [ 78.964489959363917, 30.336854310137738 ], [ 78.964140570927015, 30.337176855779106 ], [ 78.963829310536894, 30.33752755247205 ], [ 78.963559175939153, 30.337903023101855 ], [ 78.96333276894164, 30.338299651953228 ], [ 78.963152270347493, 30.338713619521126 ], [ 78.963019418938245, 30.339140939285123 ], [ 78.962935494709768, 30.339577496093646 ], [ 78.962901306523761, 30.340019085788505 ], [ 78.962917184293772, 30.340461455688512 ], [ 78.962982975782552, 30.340900345542455 ], [ 78.963098048042269, 30.341331528557244 ], [ 78.96326129348472, 30.341750852105797 ], [ 78.96347114052422, 30.342154277723001 ], [ 78.963725568691387, 30.342537920004048 ], [ 78.964022128073182, 30.342898084030544 ], [ 78.964357962892763, 30.343231300963591 ], [ 78.964729839002402, 30.343534361460637 ], [ 78.965134175025383, 30.343804346594045 ], [ 78.965567076846739, 30.344038655973062 ], [ 78.966024375121094, 30.344235032798089 ], [ 78.966501665435885, 30.344391585605226 ], [ 78.966994350742823, 30.344506806491758 ], [ 78.967497685648553, 30.34457958564623 ], [ 78.968006822137042, 30.344609222043097 ], [ 78.96851685628269, 30.344595430198801 ], [ 78.969022875503342, 30.344538342923649 ], [ 78.969520005897024, 30.344438510043371 ], [ 78.970003459205628, 30.344296893102229 ], [ 78.970468578952435, 30.344114856099068 ], [ 78.970910885307802, 30.343894152345424 ], [ 78.971326118250644, 30.343636907572719 ], [ 78.971710278608882, 30.343345599451254 ], [ 78.972059666583348, 30.343023033718836 ], [ 78.972370917383657, 30.342672317149191 ], [ 78.972641033632726, 30.342296827620832 ], [ 78.972867414227821, 30.34190018157533 ], [ 78.973047879380445, 30.341486199178508 ], [ 78.973180691594237, 30.341058867520619 ], [ 78.973264572379534, 30.340622302210345 ], [ 78.973298714544171, 30.340180707732582 ] ] ] } },
{ "type": "Feature", "properties": { "village_id": "VIL_RUDRAPRAYAG", "name": "Rudraprayag", "type": "approximate_settlement_zone" }, "geometry": { "type": "Polygon", "coordinates": [ [ [ 78.988900382894258, 30.370780160212909 ], [ 78.988884391232389, 30.370337789880796 ], [ 78.988818471423542, 30.369898908800732 ], [ 78.98870325897245, 30.369467743592939 ], [ 78.988539864059078, 30.369048446514512 ], [ 78.988329860823129, 30.36864505547484 ], [ 78.988075272182897, 30.368261455154034 ], [ 78.987778550335179, 30.367901339598912 ], [ 78.987442553125248, 30.367568176656302 ], [ 78.987070516514436, 30.367265174585842 ], [ 78.986666023411416, 30.366995251173556 ], [ 78.986232969167048, 30.366761005643077 ], [ 78.985775524065289, 30.366564693634718 ], [ 78.98529809317148, 30.366408205492853 ], [ 78.984805273923556, 30.366293048070386 ], [ 78.984301811874928, 30.366220330225165 ], [ 78.983792555013821, 30.366190752147588 ], [ 78.983282407098599, 30.366204598622137 ], [ 78.982776280457472, 30.366261736287345 ], [ 78.98227904870582, 30.366361614920617 ], [ 78.981795499836196, 30.3665032727355 ], [ 78.981330290131098, 30.366685345640359 ], [ 78.980887899341909, 30.366906080369588 ], [ 78.980472587564464, 30.367163351360912 ], [ 78.980088354226368, 30.367454681216834 ], [ 78.979738899579843, 30.367777264553158 ], [ 78.979427589071179, 30.368127995005565 ], [ 78.97915742092934, 30.368503495134544 ], [ 78.978930997286085, 30.368900148940856 ], [ 78.978750499105843, 30.369314136679225 ], [ 78.978617665167164, 30.369741471634963 ], [ 78.978533775298871, 30.370178038510137 ], [ 78.978499638032844, 30.370619633049383 ], [ 78.978515582793349, 30.371062002524603 ], [ 78.97858145669899, 30.371500886688363 ], [ 78.978696626009096, 30.371932058801949 ], [ 78.97885998220157, 30.372351366342862 ], [ 78.979069952624727, 30.372754770999645 ], [ 78.979324515621286, 30.373138387568893 ], [ 78.979621219979876, 30.373498521379368 ], [ 78.979957208527367, 30.373831703882711 ], [ 78.980329245635261, 30.374134726067567 ], [ 78.98073374837584, 30.374404669374911 ], [ 78.981166821027855, 30.374638933816581 ], [ 78.981624292599932, 30.374835263025496 ], [ 78.982101757009545, 30.374991765996299 ], [ 78.982594615530701, 30.375106935306192 ], [ 78.983098121100795, 30.375179661640512 ], [ 78.983607424059073, 30.37520924448263 ], [ 78.984117618875644, 30.37519539886496 ], [ 78.984623791420006, 30.375138258116056 ], [ 78.985121066312644, 30.375038372576991 ], [ 78.985604653903152, 30.374896704299619 ], [ 78.986069896421014, 30.374714617777649 ], [ 78.986512312853904, 30.37449386679998 ], [ 78.986927642120463, 30.374236577553301 ], [ 78.987311884121027, 30.373945228136641 ], [ 78.987661338270442, 30.373622624685929 ], [ 78.98797263914156, 30.373271874338453 ], [ 78.988242788875752, 30.372896355298288 ], [ 78.988469186048675, 30.372499684291412 ], [ 78.988649650713143, 30.372085681724123 ], [ 78.988782445378575, 30.371658334880951 ], [ 78.988866291725401, 30.371221759516693 ], [ 78.988900382894258, 30.370780160212909 ] ] ] } }
]
}
