{
"type": "FeatureCollection",
"name": "settlements",
"crs": { "type": "name", "properties": { "name": "urn:ogc:def:crs:OGC:1.3:CRS84" } },
"features": [
{ "type": "Feature", "properties": { "village_id": "VIL_KULLU", "name": "Kullu", "type": "approximate_settlement_zone" }, "geometry": { "type": "Polygon", "coordinates": [ [ [ 77.105286344850938, 31.93741244826597 ], [ 77.10525081384759, 31.93697101927993 ], [ 77.105164715685177, 31.936534685614255 ], [ 77.105028880213155, 31.936107649270774 ], [ 77.104844616212162, 31.935694022660989 ], [ 77.104613698766173, 31.935297789008242 ], [ 77.10433835214755, 31.934922763995953 ], [ 77.104021228380276, 31.934572559030439 ], [ 77.103665381688515, 31.934250546472381 ], [ 77.103274239077109, 31.933959827170767 ], [ 77.102851567327306, 31.933703200611873 ], [ 77.102401436725955, 31.933483137970182 ], [ 77.101928181876801, 31.93330175832039 ], [ 77.101436359971316, 31.933160808239052 ], [ 77.100930706920096, 31.933061644992186 ], [ 77.100416091766633, 31.933005223470165 ], [ 77.099897469821499, 31.932992086995668 ], [ 77.099379834967607, 31.933022362093023 ], [ 77.098868171594304, 31.933095757269239 ], [ 77.098367406622501, 31.933211565818372 ], [ 77.097882362081904, 31.933368672622574 ], [ 77.097417708695517, 31.933565564884276 ], [ 77.096977920918164, 31.933800346686567 ], [ 77.096567233860824, 31.934070757241749 ], [ 77.096189602515111, 31.934374192652918 ], [ 77.095848663670367, 31.934707730979138 ], [ 77.095547700889639, 31.935068160363553 ], [ 77.095289612881928, 31.935452009953806 ], [ 77.095076885575665, 31.935855583317462 ], [ 77.094911568162345, 31.936274994031162 ], [ 77.094795253342227, 31.936706203100918 ], [ 77.094729061962468, 31.937145057853744 ], [ 77.094713632196999, 31.937587331926007 ], [ 77.094749113373041, 31.938028765963843 ], [ 77.094835164505028, 31.938465108643495 ], [ 77.094970957550842, 31.938892157616745 ], [ 77.095155185360284, 31.939305799986755 ], [ 77.095386074240167, 31.93970205192446 ], [ 77.095661401015917, 31.940077097043833 ], [ 77.095978514426108, 31.940427323165814 ], [ 77.09633436064459, 31.940749357116701 ], [ 77.096725512684728, 31.941040097225386 ], [ 77.097148203402909, 31.94129674320601 ], [ 77.097598361783341, 31.941516823137704 ], [ 77.098071652154758, 31.941698217281331 ], [ 77.098563515960578, 31.941839178503336 ], [ 77.099069215680004, 31.941938349109584 ], [ 77.099583880476118, 31.94199477392689 ], [ 77.100102553130569, 31.942007909505914 ], [ 77.100620237811754, 31.941977629356764 ], [ 77.10113194821551, 31.941904225166574 ], [ 77.101632755613494, 31.941788403987662 ], [ 77.10211783634567, 31.941631281423263 ], [ 77.102582518298163, 31.941434370876582 ], [ 77.10302232591836, 31.941199568967214 ], [ 77.103433023332798, 31.940929137255548 ], [ 77.103810655151776, 31.940625680451561 ], [ 77.104151584567802, 31.940292121318265 ], [ 77.104452528380151, 31.939931672512117 ], [ 77.104710588608768, 31.939547805631868 ], [ 77.104923280392782, 31.939144217774395 ], [ 77.105088555905766, 31.93872479592002 ], [ 77.10520482405768, 31.938293579490878 ], [ 77.105270965794801, 31.937854721442779 ], [ 77.105286344850938, 31.93741244826597 ] ] ] } },
{ "type": "Feature", "properties": { "village_id": "VIL_BHUNTAR", "name": "Bhuntar", "type": "approximate_settlement_zone" }, "geometry": { "type": "Polygon", "coordinates": [ [ [ 77.129288841227876, 31.982411338420341 ], [ 77.129253165566539, 31.981969924779989 ], [ 77.12916690010357, 31.981533617001766 ], [ 77.129030876300916, 31.981106616837543 ], [ 77.128846404753887, 31.980693036349702 ], [ 77.128615262545964, 31.98029685831672 ], [ 77.12833967611445, 31.979921897885607 ], [ 77.128022299792846, 31.979571765840074 ], [ 77.127666190237207, 31.979249833837869 ], [ 77.127274776983214, 31.97895920195165 ], [ 77.126851829417589, 31.978702668825374 ], [ 77.126401420482139, 31.978482704733366 ], [ 77.125927887459682, 31.978301427801032 ], [ 77.125435790218958, 31.978160583615644 ], [ 77.124929867320446, 31.978061528423435 ], [ 77.124414990404617, 31.978005216074369 ], [ 77.123896117301229, 31.977992188840091 ], [ 77.123378244310317, 31.978022572193325 ], [ 77.122866358113114, 31.978096073599072 ], [ 77.122365387775204, 31.978211985328972 ], [ 77.121880157303039, 31.978369191272201 ], [ 77.121415339209605, 31.978566177677131 ], [ 77.120975409535561, 31.978801047720928 ], [ 77.120564604758414, 31.979071539766782 ], [ 77.120186881003846, 31.979375049133594 ], [ 77.119845875951825, 31.979708653168778 ], [ 77.119544873803989, 31.980069139383115 ], [ 77.119286773649748, 31.980453036377288 ], [ 77.119074061535969, 31.980856647262542 ], [ 77.118908786509508, 31.981276085254219 ], [ 77.118792540864135, 31.98170731109559 ], [ 77.118726444782652, 31.982146171951914 ], [ 77.118711135522929, 31.982588441400452 ], [ 77.118746761253362, 31.983029860131392 ], [ 77.118832979597684, 31.983466176967866 ], [ 77.118968960904738, 31.983893189809862 ], [ 77.119153396212241, 31.98430678610784 ], [ 77.119384509829402, 31.984702982475707 ], [ 77.119660076417645, 31.98507796306189 ], [ 77.119977442406025, 31.985428116308114 ], [ 77.12033355153558, 31.985750069741897 ], [ 77.120724974287043, 31.986040722466981 ], [ 77.121147940908656, 31.986297275038595 ], [ 77.121598377726329, 31.986517256435118 ], [ 77.122071946385788, 31.986698547866151 ], [ 77.12256408564869, 31.986839403187258 ], [ 77.123070055339738, 31.986938465724251 ], [ 77.123584982020233, 31.986994781344894 ], [ 77.124103905947962, 31.987007807651874 ], [ 77.124621828869778, 31.986977419208042 ], [ 77.125133762185627, 31.986903908744065 ], [ 77.125634775019151, 31.98678798433637 ], [ 77.126120041730843, 31.986630762583019 ], [ 77.126584888415039, 31.986433757843173 ], [ 77.127024837932353, 31.986198867644312 ], [ 77.127435653042724, 31.985928354397771 ], [ 77.127813377223362, 31.98562482359938 ], [ 77.128154372777928, 31.985291198725324 ], [ 77.128455355869761, 31.98493069306566 ], [ 77.128713428141765, 31.984546778766983 ], [ 77.1289261046186, 31.984143153383034 ], [ 77.129091337622853, 31.983723704255635 ], [ 77.12920753647569, 31.983292471069483 ], [ 77.129273582792507, 31.982853606941564 ], [ 77.129288841227876, 31.982411338420341 ] ] ] } },
{ "type": "Feature", "properties": { "village_id": "VIL_MANALI", "name": "Manali", "type": "approximate_settlement_zone" }, "geometry": { "type": "Polygon", "coordinates": [ [ [ 77.15329134237858, 32.027410226145065 ], [ 77.15325552161903, 32.02696882794212 ], [ 77.153169088373545, 32.026532546165576 ], [ 77.153032875721181, 32.026105582316269 ], [ 77.152848196077002, 32.025692048106151 ], [ 77.152616828529247, 32.02529592586729 ], [ 77.152341001685755, 32.024921030208638 ], [ 77.152023372195288, 32.02457097128945 ], [ 77.151666999151729, 32.024249120062585 ], [ 77.151275314627611, 32.023958575822206 ], [ 77.150852090621129, 32.023702136367767 ], [ 77.150401402735127, 32.023482271071124 ], [ 77.149927590937338, 32.023301097106028 ], [ 77.149435217779654, 32.023160359068044 ], [ 77.148929024478008, 32.023061412181214 ], [ 77.148413885275204, 32.023005209252702 ], [ 77.147894760525219, 32.022992291500678 ], [ 77.147376648949916, 32.023022783343976 ], [ 77.146864539526689, 32.023096391203318 ], [ 77.146363363469717, 32.023212406325804 ], [ 77.145877946765609, 32.023369711605547 ], [ 77.145412963720133, 32.023566792334996 ], [ 77.14497289196224, 32.023801750783612 ], [ 77.14456196933773, 32.024072324463894 ], [ 77.144184153107588, 32.024375907909224 ], [ 77.143843081843045, 32.02470957775413 ], [ 77.143542040384375, 32.02507012087608 ], [ 77.143283928200873, 32.025454065328042 ], [ 77.143071231456702, 32.025857713764417 ], [ 77.142905999052388, 32.026277179038992 ], [ 77.142789822872984, 32.026708421632222 ], [ 77.142723822434078, 32.027147288547809 ], [ 77.142708634074211, 32.027589553304324 ], [ 77.142744404799117, 32.028030956636698 ], [ 77.142830790837635, 32.028467247515785 ], [ 77.142966960924895, 32.028894224090919 ], [ 77.143151604281556, 32.029307774161133 ], [ 77.143382943213879, 32.029703914784825 ], [ 77.143658750213774, 32.030078830646552 ], [ 77.143976369394977, 32.03042891081067 ], [ 77.144332742059817, 32.030750783507884 ], [ 77.144724436150327, 32.031041348618913 ], [ 77.145147679300635, 32.031297807542309 ], [ 77.145598395172257, 32.031517690157976 ], [ 77.146072242721985, 32.031698878626642 ], [ 77.146564658023976, 32.031839627795364 ], [ 77.147070898242731, 32.03193858201233 ], [ 77.147586087332428, 32.031994788188733 ], [ 77.148105263022003, 32.032007704981559 ], [ 77.148623424631978, 32.031977208008819 ], [ 77.149135581262144, 32.031903591046948 ], [ 77.149636799884249, 32.031787563198627 ], [ 77.15012225287586, 32.031630242058803 ], [ 77.150587264536725, 32.031433142944515 ], [ 77.151027356138243, 32.031198164292817 ], [ 77.151438289072004, 32.030927569367591 ], [ 77.151816105680865, 32.030623964451941 ], [ 77.152157167379031, 32.030290273736362 ], [ 77.152458189693846, 32.029929711145478 ], [ 77.152716273891741, 32.029545749374499 ], [ 77.152928934883988, 32.029142086434554 ], [ 77.153094125143994, 32.028722610029234 ], [ 77.153210254406275, 32.028291360105854 ], [ 77.153276204958289, 32.027852489942376 ], [ 77.15329134237858, 32.027410226145065 ] ] ] } }
]
}
